NORAD_CAT_ID,OBJECT_NAME,OBJECT_TYPE,EPOCH,MEAN_MOTION,ECCENTRICITY,INCLINATION,RA_OF_ASC_NODE,ARG_OF_PERICENTER,MEAN_ANOMALY,BSTAR,MEAN_MOTION_DOT,MEAN_MOTION_DDOT,TLE_LINE0,TLE_LINE1,TLE_LINE2,SEMIMAJOR_AXIS,PERIOD,APOGEE,PERIGEE,DECAYED
52601.0,STARLINK-4027,PAYLOAD,2024-04-11 21:18:02,15.08834064,0.0001554,53.2174,167.1913,96.2903,263.8267,-1.988e-05,-6.04e-06,0.0,0 STARLINK-4027,1 52601U 22052D   24102.88753432 -.00000604  00000-0 -19880-4 0  9996,2 52601  53.2174 167.1913 0001554  96.2903 263.8267 15.08834064106460,6917.899,95.438,540.839,538.688,0.0
52601.0,STARLINK-4027,PAYLOAD,2024-04-12 11:36:30,15.08844165,0.000146,53.2165,164.5141,93.4812,266.6348,0.00012454,1.695e-05,0.0,0 STARLINK-4027,1 52601U 22052D   24103.48369084  .00001695  00000-0  12454-3 0  9997,2 52601  53.2165 164.5141 0001460  93.4812 266.6348 15.08844165106552,6917.868,95.437,540.743,538.723,0.0
52601.0,STARLINK-4027,PAYLOAD,2024-04-13 03:30:20,15.08867549,0.0001408,53.2164,161.5357,98.903,261.2122,0.00042307,6.457e-05,0.0,0 STARLINK-4027,1 52601U 22052D   24104.14607142  .00006457  00000-0  42307-3 0  9992,2 52601  53.2164 161.5357 0001408  98.9030 261.2122 15.08867549106227,6917.796,95.436,540.635,538.687,0.0
52601.0,STARLINK-4027,PAYLOAD,2024-04-13 09:51:54,15.08839542,0.0001325,53.2155,160.3495,72.5501,287.5636,4.0405e-05,3.55e-06,0.0,0 STARLINK-4027,1 52601U 22052D   24104.41104392  .00000355  00000-0  40405-4 0  9990,2 52601  53.2155 160.3495 0001325  72.5501 287.5636 15.08839542106263,6917.882,95.438,540.663,538.83,0.0
52601.0,STARLINK-4027,PAYLOAD,2024-04-14 03:21:09,15.08830252,0.0001468,53.2154,157.0816,46.3543,313.7571,-0.00012117,-2.215e-05,0.0,0 STARLINK-4027,1 52601U 22052D   24105.13969125 -.00002215  00000-0 -12117-3 0  9990,2 52601  53.2154 157.0816 0001468  46.3543 313.7571 15.08830252106376,6917.91,95.438,540.791,538.76,0.0
52601.0,STARLINK-4027,PAYLOAD,2024-04-14 09:42:41,15.08838277,0.0001582,53.2159,155.8907,83.3019,276.8153,-0.00014265,-2.557e-05,0.0,0 STARLINK-4027,1 52601U 22052D   24105.40464793 -.00002557  00000-0 -14265-3 0  9996,2 52601  53.2159 155.8907 0001582  83.3019 276.8153 15.08838277106419,6917.886,95.438,540.845,538.656,0.0
52601.0,STARLINK-4027,PAYLOAD,2024-04-15 12:44:15,15.08840112,0.0001797,53.2156,150.834,101.3161,258.8033,0.00044187,6.751e-05,0.0,0 STARLINK-4027,1 52601U 22052D   24106.53073492  .00006751  00000-0  44187-3 0  9997,2 52601  53.2156 150.8340 0001797 101.3161 258.8033 15.08840112106585,6917.88,95.438,540.988,538.502,0.0
52601.0,STARLINK-4027,PAYLOAD,2024-04-16 09:24:16,15.08845068,0.0001788,53.216,146.9654,96.97,263.1495,0.00030619,4.589e-05,0.0,0 STARLINK-4027,1 52601U 22052D   24107.39185517  .00004589  00000-0  30619-3 0  9996,2 52601  53.2160 146.9654 0001788  96.9700 263.1495 15.08845068106713,6917.865,95.437,540.967,538.493,0.0
52601.0,STARLINK-4027,PAYLOAD,2024-04-17 09:15:02,15.08852114,0.0001696,53.2158,142.5043,95.2849,264.8337,0.00025271,3.737e-05,0.0,0 STARLINK-4027,1 52601U 22052D   24108.38544962  .00003737  00000-0  25271-3 0  9991,2 52601  53.2158 142.5043 0001696  95.2849 264.8337 15.08852114107295,6917.843,95.437,540.882,538.535,0.0
52601.0,STARLINK-4027,PAYLOAD,2024-04-18 01:08:55,15.08831055,0.0001793,53.216,139.5322,84.5519,275.5677,-8.2172e-05,-1.595e-05,0.0,0 STARLINK-4027,1 52601U 22052D   24109.04786073 -.00001595  00000-0 -82172-4 0  9992,2 52601  53.2160 139.5322 0001793  84.5519 275.5677 15.08831055106967,6917.908,95.438,541.013,538.532,0.0
52601.0,STARLINK-4027,PAYLOAD,2024-04-18 09:05:51,15.08825628,0.0001454,53.2158,138.0431,99.3747,260.741,-0.00014212,-2.548e-05,0.0,0 STARLINK-4027,1 52601U 22052D   24109.37906648 -.00002548  00000-0 -14212-3 0  9998,2 52601  53.2158 138.0431 0001454  99.3747 260.7410 15.08825628107444,6917.924,95.438,540.795,538.783,0.0
52601.0,STARLINK-4027,PAYLOAD,2024-04-19 02:35:05,15.08836772,0.0001213,53.2146,134.7695,79.7893,280.3235,9.9337e-05,1.293e-05,0.0,0 STARLINK-4027,1 52601U 22052D   24110.10770583  .00001293  00000-0  99337-4 0  9994,2 52601  53.2146 134.7695 0001213  79.7893 280.3235 15.08836772107123,6917.89,95.438,540.594,538.916,0.0
52601.0,STARLINK-4027,PAYLOAD,2024-04-19 08:56:38,15.08848158,0.0001318,53.2156,133.5817,90.21,269.9043,0.00045021,6.886e-05,0.0,0 STARLINK-4027,1 52601U 22052D   24110.37266337  .00006886  00000-0  45021-3 0  9993,2 52601  53.2156 133.5817 0001318  90.2100 269.9043 15.08848158107167,6917.855,95.437,540.632,538.809,0.0
52601.0,STARLINK-4027,PAYLOAD,2024-04-20 10:22:47,15.08872021,0.0001311,53.2162,128.8254,85.6525,274.4617,0.00068464,0.00010634,0.0,0 STARLINK-4027,1 52601U 22052D   24111.43249125  .00010634  00000-0  68464-3 0  9999,2 52601  53.2162 128.8254 0001311  85.6525 274.4617 15.08872021107320,6917.783,95.436,540.554,538.741,0.0
52601.0,STARLINK-4027,PAYLOAD,2024-04-21 08:38:12,15.08824916,0.0001544,53.2161,124.6646,94.4664,265.6505,-0.00018572,-3.241e-05,0.0,0 STARLINK-4027,1 52601U 22052D   24112.35986923 -.00003241  00000-0 -18572-3 0  9998,2 52601  53.2161 124.6646 0001544  94.4664 265.6505 15.08824916107898,6917.926,95.439,540.86,538.723,0.0
52601.0,STARLINK-4027,PAYLOAD,2024-04-22 05:18:13,15.08849619,0.0001636,53.2154,120.7999,131.7659,228.3473,0.00081592,0.00012725,0.0,0 STARLINK-4027,1 52601U 22052D   24113.22098700  .00012725  00000-0  81592-3 0  9999,2 52601  53.2154 120.7999 0001636 131.7659 228.3473 15.08849619107593,6917.851,95.437,540.848,538.584,0.0
52601.0,STARLINK-4027,PAYLOAD,2024-04-22 10:04:22,15.08870611,0.0001667,53.2145,119.9052,99.3058,260.8123,0.0014271,0.00022516,0.0,0 STARLINK-4027,1 52601U 22052D   24113.41970515  .00022516  00000-0  14271-2 0  9991,2 52601  53.2145 119.9052 0001667  99.3058 260.8123 15.08870611108050,6917.787,95.436,540.805,538.499,0.0
52601.0,STARLINK-4027,PAYLOAD,2024-04-23 05:09:00,15.08851231,0.0002994,53.2168,116.325,132.8419,227.2825,4.2871e-05,3.94e-06,0.0,0 STARLINK-4027,1 52601U 22052D   24114.21458358  .00000394  00000-0  42871-4 0  9995,2 52601  53.2168 116.3250 0002994 132.8419 227.2825 15.08851231107742,6917.846,95.437,541.782,537.64,0.0
52601.0,STARLINK-4027,PAYLOAD,2024-04-23 06:44:23,15.08847993,0.0001746,53.215,116.0404,103.5932,256.5255,0.00043455,6.636e-05,0.0,0 STARLINK-4027,1 52601U 22052D   24114.28082820  .00006636  00000-0  43455-3 0  9992,2 52601  53.2150 116.0404 0001746 103.5932 256.5255 15.08847993107753,6917.856,95.437,540.929,538.513,0.0
52601.0,STARLINK-4027,PAYLOAD,2024-04-24 03:24:24,15.08846105,0.0002023,53.2159,112.1801,104.2386,255.883,0.00042292,6.45e-05,0.0,0 STARLINK-4027,1 52601U 22052D   24115.14195071  .00006450  00000-0  42292-3 0  9993,2 52601  53.2159 112.1801 0002023 104.2386 255.8830 15.08846105107889,6917.862,95.437,541.126,538.327,0.0
52601.0,STARLINK-4027,PAYLOAD,2024-04-24 06:35:10,15.08847741,0.0001957,53.2159,111.5858,98.1615,261.9599,0.00047905,7.346e-05,0.0,0 STARLINK-4027,1 52601U 22052D   24115.27443060  .00007346  00000-0  47905-3 0  9992,2 52601  53.2159 111.5858 0001957  98.1615 261.9599 15.08847741108333,6917.857,95.437,541.076,538.368,0.0
52601.0,STARLINK-4027,PAYLOAD,2024-04-24 20:53:39,15.08843488,0.0002032,53.2161,108.9115,98.5266,261.5957,0.00020206,2.929e-05,0.0,0 STARLINK-4027,1 52601U 22052D   24115.87059135  .00002929  00000-0  20206-3 0  9991,2 52601  53.2161 108.9115 0002032  98.5266 261.5957 15.08843488107992,6917.87,95.437,541.14,538.329,0.0
52601.0,STARLINK-4027,PAYLOAD,2024-04-25 06:25:57,15.08843174,0.0002152,53.2173,107.1272,110.8208,249.3015,0.00015187,2.13e-05,0.0,0 STARLINK-4027,1 52601U 22052D   24116.26802992  .00002130  00000-0  15187-3 0  9998,2 52601  53.2173 107.1272 0002152 110.8208 249.3015 15.08843174108483,6917.871,95.437,541.224,538.247,0.0
52601.0,STARLINK-4027,PAYLOAD,2024-04-26 04:41:21,15.08838837,0.0002113,53.2179,102.9593,111.996,248.1257,-2.7983e-05,-7.34e-06,0.0,0 STARLINK-4027,1 52601U 22052D   24117.19539185 -.00000734  00000-0 -27983-4 0  9990,2 52601  53.2179 102.9593 0002113 111.9960 248.1257 15.08838837108195,6917.884,95.438,541.211,538.287,0.0
52601.0,STARLINK-4027,PAYLOAD,2024-04-26 09:27:31,15.08842133,0.0001946,53.2174,102.0653,103.7155,256.4054,2.4948e-05,1.09e-06,0.0,0 STARLINK-4027,1 52601U 22052D   24117.39411044  .00000109  00000-0  24948-4 0  9997,2 52601  53.2174 102.0653 0001946 103.7155 256.4054 15.08842133108658,6917.874,95.437,541.085,538.393,0.0
52601.0,STARLINK-4027,PAYLOAD,2024-04-26 15:49:03,15.088386,0.0001737,53.2169,100.8743,93.9083,266.2107,5.4646e-05,5.82e-06,0.0,0 STARLINK-4027,1 52601U 22052D   24117.65907276  .00000582  00000-0  54646-4 0  9996,2 52601  53.2169 100.8743 0001737  93.9083 266.2107 15.08838600108692,6917.885,95.438,540.951,538.548,0.0
52601.0,STARLINK-4027,PAYLOAD,2024-04-27 07:42:54,15.08853489,0.0001746,53.2169,97.9008,93.551,266.5682,0.00027112,4.031e-05,0.0,0 STARLINK-4027,1 52601U 22052D   24118.32146588  .00004031  00000-0  27112-3 0  9992,2 52601  53.2169  97.9008 0001746  93.5510 266.5682 15.08853489108360,6917.839,95.437,540.912,538.496,0.0
52601.0,STARLINK-4027,PAYLOAD,2024-04-27 15:39:50,15.08842132,0.0002009,53.216,96.4143,91.5771,268.5451,0.00013819,1.912e-05,0.0,0 STARLINK-4027,1 52601U 22052D   24118.65267108  .00001912  00000-0  13819-3 0  9994,2 52601  53.2160  96.4143 0002009  91.5771 268.5451 15.08842132108410,6917.874,95.437,541.129,538.349,0.0
52601.0,STARLINK-4027,PAYLOAD,2024-04-27 22:01:23,15.08841759,0.0002551,53.2154,95.2238,82.7083,277.4199,0.00010256,1.344e-05,0.0,0 STARLINK-4027,1 52601U 22052D   24118.91763454  .00001344  00000-0  10256-3 0  9999,2 52601  53.2154  95.2238 0002551  82.7083 277.4199 15.08841759108888,6917.875,95.437,541.505,537.975,0.0
52601.0,STARLINK-4027,PAYLOAD,2024-04-28 04:22:56,15.08828651,0.000202,53.2183,94.0374,86.0189,274.1034,-8.5067e-05,-1.641e-05,0.0,0 STARLINK-4027,1 52601U 22052D   24119.18260106 -.00001641  00000-0 -85067-4 0  9990,2 52601  53.2183  94.0374 0002020  86.0189 274.1034 15.08828651108498,6917.915,95.438,541.177,538.383,0.0
